start=new Date('2022-02-05T00:00:00.000Z').valueOf();
sats=[{"EPHEMERIS_TYPE":"0","BSTAR":"0.00003519500000","RCS_SIZE":"LARGE","OBJECT_NAME":"STARLINK-2490","ELEMENT_SET_NO":"999","MEAN_MOTION_DDOT":"0.0000000000000","ECCENTRICITY":"0.00016460","ARG_OF_PERICENTER":"66.6146","TIME_SYSTEM":"UTC","MEAN_ANOMALY":"293.5016","OBJECT_TYPE":"PAYLOAD","CLASSIFICATION_TYPE":"U","EPOCH":"2022-02-04T12:15:36.413568","DECAY_DATE":null,"MEAN_MOTION_DOT":"0.00000243","SEMIMAJOR_AXIS":"6925.321","NORAD_CAT_ID":"48147","GP_ID":"195299720","MEAN_ELEMENT_THEORY":"SGP4","SITE":"AFETR","APOAPSIS":"548.326","FILE":"3291889","MEAN_MOTION":"15.06408847","TLE_LINE2":"2 48147  53.0580  44.2388 0001646  66.6146 293.5016 15.06408847 47147","REV_AT_EPOCH":"4714","RA_OF_ASC_NODE":"44.2388","TLE_LINE1":"1 48147U 21027BH  22035.51083812  .00000243  00000-0  35195-4 0  9992","PERIAPSIS":"546.047","PERIOD":"95.592","LAUNCH_DATE":"2021-04-07","CENTER_NAME":"EARTH","INCLINATION":"53.0580","REF_FRAME":"TEME","OBJECT_ID":"2021-027BH","COUNTRY_CODE":"US"},{"NORAD_CAT_ID":"48148","SEMIMAJOR_AXIS":"6925.329","MEAN_MOTION_DOT":"0.00004595","GP_ID":"195299965","MEAN_ELEMENT_THEORY":"SGP4","DECAY_DATE":null,"MEAN_MOTION":"15.06406281","FILE":"3291889","APOAPSIS":"548.300","RA_OF_ASC_NODE":"39.3980","REV_AT_EPOCH":"4719","TLE_LINE2":"2 48148  53.0553  39.3980 0001596  66.5478 293.5679 15.06406281 47192","SITE":"AFETR","PERIAPSIS":"546.089","LAUNCH_DATE":"2021-04-07","PERIOD":"95.592","TLE_LINE1":"1 48148U 21027BJ  22035.47997951  .00004595  00000-0  32709-3 0  9997","OBJECT_ID":"2021-027BJ","REF_FRAME":"TEME","COUNTRY_CODE":"US","INCLINATION":"53.0553","CENTER_NAME":"EARTH","RCS_SIZE":"LARGE","OBJECT_NAME":"STARLINK-2491","ELEMENT_SET_NO":"999","EPHEMERIS_TYPE":"0","BSTAR":"0.00032709000000","ECCENTRICITY":"0.00015960","MEAN_MOTION_DDOT":"0.0000000000000","ARG_OF_PERICENTER":"66.5478","TIME_SYSTEM":"UTC","OBJECT_TYPE":"PAYLOAD","CLASSIFICATION_TYPE":"U","EPOCH":"2022-02-04T11:31:10.229664","MEAN_ANOMALY":"293.5679"},{"ARG_OF_PERICENTER":"74.3695","TIME_SYSTEM":"UTC","MEAN_ANOMALY":"285.7482","OBJECT_TYPE":"PAYLOAD","EPOCH":"2022-02-04T08:38:39.208992","CLASSIFICATION_TYPE":"U","BSTAR":"0.00009569500000","EPHEMERIS_TYPE":"0","ELEMENT_SET_NO":"999","RCS_SIZE":"MEDIUM","OBJECT_NAME":"STARLINK-2492","MEAN_MOTION_DDOT":"0.0000000000000","ECCENTRICITY":"0.00017060","TLE_LINE1":"1 48149U 21027BK  22035.36017603  .00001144  00000-0  95695-4 0  9994","PERIOD":"95.592","LAUNCH_DATE":"2021-04-07","PERIAPSIS":"546.016","CENTER_NAME":"EARTH","INCLINATION":"53.0551","COUNTRY_CODE":"US","REF_FRAME":"TEME","OBJECT_ID":"2021-027BK","DECAY_DATE":null,"GP_ID":"195298721","MEAN_ELEMENT_THEORY":"SGP4","MEAN_MOTION_DOT":"0.00001144","SEMIMAJOR_AXIS":"6925.333","NORAD_CAT_ID":"48149","SITE":"AFETR","TLE_LINE2":"2 48149  53.0551  19.9162 0001706  74.3695 285.7482 15.06405229 47464","REV_AT_EPOCH":"4746","RA_OF_ASC_NODE":"19.9162","APOAPSIS":"548.379","MEAN_MOTION":"15.06405229","FILE":"3291889"},{"PERIAPSIS":"546.208","LAUNCH_DATE":"2021-04-07","PERIOD":"95.592","TLE_LINE1":"1 48150U 21027BL  22035.36386257  .00000175  00000-0  30644-4 0  9996","OBJECT_ID":"2021-027BL","REF_FRAME":"TEME","COUNTRY_CODE":"US","INCLINATION":"53.0560","CENTER_NAME":"EARTH","NORAD_CAT_ID":"48150","SEMIMAJOR_AXIS":"6925.339","MEAN_MOTION_DOT":"0.00000175","MEAN_ELEMENT_THEORY":"SGP4","GP_ID":"195298970","DECAY_DATE":null,"FILE":"3291889","MEAN_MOTION":"15.06403040","APOAPSIS":"548.200","RA_OF_ASC_NODE":"19.9156","REV_AT_EPOCH":"4747","TLE_LINE2":"2 48150  53.0560  19.9156 0001438  90.3746 269.7407 15.06403040 47475","SITE":"AFETR","ARG_OF_PERICENTER":"90.3746","TIME_SYSTEM":"UTC","CLASSIFICATION_TYPE":"U","OBJECT_TYPE":"PAYLOAD","EPOCH":"2022-02-04T08:43:57.726048","MEAN_ANOMALY":"269.7407","ELEMENT_SET_NO":"999","RCS_SIZE":"LARGE","OBJECT_NAME":"STARLINK-2493","EPHEMERIS_TYPE":"0","BSTAR":"0.00003064400000","ECCENTRICITY":"0.00014380","MEAN_MOTION_DDOT":"0.0000000000000"},{"SITE":"AFETR","RA_OF_ASC_NODE":"19.8972","REV_AT_EPOCH":"4747","TLE_LINE2":"2 48151  53.0568  19.8972 0001561  64.7083 295.4067 15.06410017 47475","MEAN_MOTION":"15.06410017","FILE":"3291889","APOAPSIS":"548.264","DECAY_DATE":null,"MEAN_ELEMENT_THEORY":"SGP4","GP_ID":"195300220","NORAD_CAT_ID":"48151","SEMIMAJOR_AXIS":"6925.318","MEAN_MOTION_DOT":"0.00000909","INCLINATION":"53.0568","CENTER_NAME":"EARTH","COUNTRY_CODE":"US","OBJECT_ID":"2021-027BM","REF_FRAME":"TEME","TLE_LINE1":"1 48151U 21027BM  22035.36755071  .00000909  00000-0  79920-4 0  9996","LAUNCH_DATE":"2021-04-07","PERIOD":"95.592","PERIAPSIS":"546.102","MEAN_MOTION_DDOT":"0.0000000000000","ECCENTRICITY":"0.00015610","BSTAR":"0.00007992000000","EPHEMERIS_TYPE":"0","OBJECT_NAME":"STARLINK-2503","RCS_SIZE":"LARGE","ELEMENT_SET_NO":"999","MEAN_ANOMALY":"295.4067","OBJECT_TYPE":"PAYLOAD","CLASSIFICATION_TYPE":"U","EPOCH":"2022-02-04T08:49:16.381344","ARG_OF_PERICENTER":"64.7083","TIME_SYSTEM":"UTC"},{"SITE":"AFETR","APOAPSIS":"548.294","MEAN_MOTION":"15.06408246","FILE":"3291990","TLE_LINE2":"2 48276  53.0546 272.4235 0001597  65.6203 171.5832 15.06408246 44248","REV_AT_EPOCH":"4424","RA_OF_ASC_NODE":"272.4235","DECAY_DATE":null,"MEAN_MOTION_DOT":"-0.00040795","SEMIMAJOR_AXIS":"6925.323","NORAD_CAT_ID":"48276","MEAN_ELEMENT_THEORY":"SGP4","GP_ID":"195306126","CENTER_NAME":"EARTH","INCLINATION":"53.0546","REF_FRAME":"TEME","OBJECT_ID":"2021-036A","COUNTRY_CODE":"US","TLE_LINE1":"1 48276U 21036A   22035.91667824 -.00040795  00000-0 -27349-2 0  9998","PERIAPSIS":"546.082","PERIOD":"95.592","LAUNCH_DATE":"2021-04-29","MEAN_MOTION_DDOT":"0.0000000000000","ECCENTRICITY":"0.00015970","EPHEMERIS_TYPE":"0","BSTAR":"-0.00273490000000","ELEMENT_SET_NO":"999","RCS_SIZE":"LARGE","OBJECT_NAME":"STARLINK-2567","MEAN_ANOMALY":"171.5832","CLASSIFICATION_TYPE":"U","OBJECT_TYPE":"PAYLOAD","EPOCH":"2022-02-04T22:00:00.999936","ARG_OF_PERICENTER":"65.6203","TIME_SYSTEM":"UTC"},{"ARG_OF_PERICENTER":"78.3494","TIME_SYSTEM":"UTC","OBJECT_TYPE":"PAYLOAD","CLASSIFICATION_TYPE":"U","EPOCH":"2022-02-04T14:00:01.999872","MEAN_ANOMALY":"142.6161","ELEMENT_SET_NO":"999","RCS_SIZE":"LARGE","OBJECT_NAME":"STARLINK-2569","BSTAR":"0.00048005000000","EPHEMERIS_TYPE":"0","ECCENTRICITY":"0.00023790","MEAN_MOTION_DDOT":"0.0000000000000","PERIOD":"95.592","LAUNCH_DATE":"2021-04-29","PERIAPSIS":"545.563","TLE_LINE1":"1 48277U 21036B   22035.58335648  .00006876  00000-0  48005-3 0  9991","COUNTRY_CODE":"US","REF_FRAME":"TEME","OBJECT_ID":"2021-036B","CENTER_NAME":"EARTH","INCLINATION":"53.0526","GP_ID":"195300479","MEAN_ELEMENT_THEORY":"SGP4","MEAN_MOTION_DOT":"0.00006876","SEMIMAJOR_AXIS":"6925.345","NORAD_CAT_ID":"48277","DECAY_DATE":null,"REV_AT_EPOCH":"359","TLE_LINE2":"2 48277  53.0526 238.9030 0002379  78.3494 142.6161 15.06401103  3591","RA_OF_ASC_NODE":"238.9030","APOAPSIS":"548.858","MEAN_MOTION":"15.06401103","FILE":"3291889","SITE":"AFETR"},{"MEAN_MOTION_DDOT":"0.0000000000000","ECCENTRICITY":"0.00015980","BSTAR":"-0.00280790000000","EPHEMERIS_TYPE":"0","OBJECT_NAME":"STARLINK-2543","RCS_SIZE":"LARGE","ELEMENT_SET_NO":"999","MEAN_ANOMALY":"336.5285","OBJECT_TYPE":"PAYLOAD","CLASSIFICATION_TYPE":"U","EPOCH":"2022-02-04T22:00:00.999936","TIME_SYSTEM":"UTC","ARG_OF_PERICENTER":"50.6058","SITE":"AFETR","REV_AT_EPOCH":"4451","TLE_LINE2":"2 48278  53.0531 252.5473 0001598  50.6058 336.5285 15.06416862 44518","RA_OF_ASC_NODE":"252.5473","APOAPSIS":"548.269","FILE":"3291990","MEAN_MOTION":"15.06416862","DECAY_DATE":null,"GP_ID":"195306120","MEAN_ELEMENT_THEORY":"SGP4","MEAN_MOTION_DOT":"-0.00041879","SEMIMAJOR_AXIS":"6925.297","NORAD_CAT_ID":"48278","CENTER_NAME":"EARTH","INCLINATION":"53.0531","COUNTRY_CODE":"US","REF_FRAME":"TEME","OBJECT_ID":"2021-036C","TLE_LINE1":"1 48278U 21036C   22035.91667824 -.00041879  00000-0 -28079-2 0  9995","PERIOD":"95.591","LAUNCH_DATE":"2021-04-29","PERIAPSIS":"546.055"},{"TIME_SYSTEM":"UTC","ARG_OF_PERICENTER":"68.6953","MEAN_ANOMALY":"349.8713","CLASSIFICATION_TYPE":"U","OBJECT_TYPE":"PAYLOAD","EPOCH":"2022-02-04T14:00:01.999872","EPHEMERIS_TYPE":"0","BSTAR":"0.00200720000000","RCS_SIZE":"LARGE","OBJECT_NAME":"STARLINK-2580","ELEMENT_SET_NO":"999","MEAN_MOTION_DDOT":"0.0000000000000","ECCENTRICITY":"0.00018280","TLE_LINE1":"1 48279U 21036D   22035.58335648  .00029736  00000-0  20072-2 0  9996","PERIAPSIS":"545.971","LAUNCH_DATE":"2021-04-29","PERIOD":"95.593","INCLINATION":"53.0544","CENTER_NAME":"EARTH","OBJECT_ID":"2021-036D","REF_FRAME":"TEME","COUNTRY_CODE":"US","DECAY_DATE":null,"NORAD_CAT_ID":"48279","SEMIMAJOR_AXIS":"6925.372","MEAN_MOTION_DOT":"0.00029736","MEAN_ELEMENT_THEORY":"SGP4","GP_ID":"195272690","SITE":"AFETR","FILE":"3291671","MEAN_MOTION":"15.06392382","APOAPSIS":"548.503","RA_OF_ASC_NODE":"253.9225","TLE_LINE2":"2 48279  53.0544 253.9225 0001828  68.6953 349.8713 15.06392382 44469","REV_AT_EPOCH":"4446"},{"MEAN_ANOMALY":"291.4381","CLASSIFICATION_TYPE":"U","OBJECT_TYPE":"PAYLOAD","EPOCH":"2022-02-04T18:21:50.159232","ARG_OF_PERICENTER":"68.6754","TIME_SYSTEM":"UTC","MEAN_MOTION_DDOT":"0.0000000000000","ECCENTRICITY":"0.00013690","BSTAR":"0.00038710000000","EPHEMERIS_TYPE":"0","ELEMENT_SET_NO":"999","RCS_SIZE":"LARGE","OBJECT_NAME":"STARLINK-2565","INCLINATION":"53.0565","CENTER_NAME":"EARTH","COUNTRY_CODE":"US","OBJECT_ID":"2021-036E","REF_FRAME":"TEME","TLE_LINE1":"1 48280U 21036E   22035.76516388  .00005493  00000-0  38710-3 0  9993","LAUNCH_DATE":"2021-04-29","PERIOD":"95.591","PERIAPSIS":"546.195","SITE":"AFETR","RA_OF_ASC_NODE":"323.0977","REV_AT_EPOCH":"4351","TLE_LINE2":"2 48280  53.0565 323.0977 0001369  68.6754 291.4381 15.06423158 43510","FILE":"3291907","MEAN_MOTION":"15.06423158","APOAPSIS":"548.091","DECAY_DATE":null,"GP_ID":"195303666","MEAN_ELEMENT_THEORY":"SGP4","NORAD_CAT_ID":"48280","SEMIMAJOR_AXIS":"6925.278","MEAN_MOTION_DOT":"0.00005493"}];
